{
  "norad_id": 61690,
  "name": "STARLINK-11340 [DTC]",
  "history": [
    {
      "epoch": "2026-03-28T20:52:51.868992Z",
      "apogee_km": 360.37530330967456,
      "perigee_km": 359.1180142189487,
      "latitude_deg": 6.914073404135898e-05,
      "longitude_deg": 152.39043953228438,
      "height_km": 360.3543675173347,
      "semi_major_axis_km": 6737.883658764311,
      "eccentricity": 9.33e-05,
      "inclination_deg": 53.1572,
      "raan_deg": 291.8908,
      "arg_perigee_deg": 60.8705,
      "mean_anomaly_deg": 299.2407,
      "mean_motion_rev_day": 15.69703043
    }
  ]
}