{"fetched_at":"2026-03-29T16:36:15Z","count":15609,"tles":[{"name":"STARLINK-11340 [DTC]","line1":"1 61690U 24195D   26087.87004478 -.00001079  00000+0 -40493-5 0  9997","line2":"2 61690  53.1572 291.8908 0000933  60.8705 299.2407 15.69703043 82040","category":"Starlink"}]}